start=new Date('2021-09-22T00:00:00.000Z').valueOf();
sats=[{"CENTER_NAME":"EARTH","LAUNCH_DATE":"2020-03-18","ECCENTRICITY":"0.00009020","PERIOD":"95.592","SITE":"AFETR","MEAN_ELEMENT_THEORY":"SGP4","OBJECT_TYPE":"PAYLOAD","EPHEMERIS_TYPE":"0","ELEMENT_SET_NO":"999","INCLINATION":"53.0528","OBJECT_NAME":"STARLINK-1258","MEAN_MOTION_DOT":"-0.00000772","MEAN_MOTION_DDOT":"0.0000000000000","REF_FRAME":"TEME","EPOCH":"2021-09-21T09:56:09.853152","ARG_OF_PERICENTER":"61.1897","FILE":"3121847","GP_ID":"185156418","MEAN_MOTION":"15.06394538","TIME_SYSTEM":"UTC","SEMIMAJOR_AXIS":"6925.365","PERIAPSIS":"546.606","MEAN_ANOMALY":"298.9183","NORAD_CAT_ID":"45381","CLASSIFICATION_TYPE":"U","TLE_LINE1":"1 45381U 20019X   21264.41400293 -.00000772  00000-0 -32980-4 0  9995","DECAY_DATE":null,"REV_AT_EPOCH":"8428","APOAPSIS":"547.855","RCS_SIZE":"LARGE","COUNTRY_CODE":"US","RA_OF_ASC_NODE":"265.2215","OBJECT_ID":"2020-019X","TLE_LINE2":"2 45381  53.0528 265.2215 0000902  61.1897 298.9183 15.06394538 84288","BSTAR":"-0.00003298000000"},{"REV_AT_EPOCH":"357","RCS_SIZE":"LARGE","APOAPSIS":"547.875","COUNTRY_CODE":"US","RA_OF_ASC_NODE":"262.5892","TLE_LINE2":"2 45382  53.0522 262.5892 0001011  61.0512 358.7990 15.06412518  3572","BSTAR":"-0.00030672000000","OBJECT_ID":"2020-019Y","SEMIMAJOR_AXIS":"6925.310","TIME_SYSTEM":"UTC","PERIAPSIS":"546.475","NORAD_CAT_ID":"45382","CLASSIFICATION_TYPE":"U","MEAN_ANOMALY":"358.7990","TLE_LINE1":"1 45382U 20019Y   21265.00001157 -.00004848  00000-0 -30672-3 0  9991","DECAY_DATE":null,"EPHEMERIS_TYPE":"0","OBJECT_TYPE":"PAYLOAD","OBJECT_NAME":"STARLINK-1264","ELEMENT_SET_NO":"999","INCLINATION":"53.0522","ARG_OF_PERICENTER":"61.0512","MEAN_MOTION_DDOT":"0.0000000000000","MEAN_MOTION_DOT":"-0.00004848","REF_FRAME":"TEME","EPOCH":"2021-09-22T00:00:00.999648","GP_ID":"185187604","MEAN_MOTION":"15.06412518","FILE":"3122258","CENTER_NAME":"EARTH","ECCENTRICITY":"0.00010110","LAUNCH_DATE":"2020-03-18","PERIOD":"95.591","MEAN_ELEMENT_THEORY":"SGP4","SITE":"AFETR"},{"ECCENTRICITY":"0.00007160","LAUNCH_DATE":"2020-03-18","CENTER_NAME":"EARTH","MEAN_ELEMENT_THEORY":"SGP4","SITE":"AFETR","PERIOD":"95.593","OBJECT_NAME":"STARLINK-1266","INCLINATION":"53.0511","ELEMENT_SET_NO":"999","EPHEMERIS_TYPE":"0","OBJECT_TYPE":"PAYLOAD","GP_ID":"185186352","MEAN_MOTION":"15.06390501","FILE":"3122258","ARG_OF_PERICENTER":"74.7800","MEAN_MOTION_DOT":"0.00018555","MEAN_MOTION_DDOT":"0.0000000000000","REF_FRAME":"TEME","EPOCH":"2021-09-22T00:00:00.999648","NORAD_CAT_ID":"45383","CLASSIFICATION_TYPE":"U","MEAN_ANOMALY":"265.0050","TIME_SYSTEM":"UTC","SEMIMAJOR_AXIS":"6925.378","PERIAPSIS":"546.747","DECAY_DATE":null,"TLE_LINE1":"1 45383U 20019Z   21265.00001157  .00018555  00000-0  12616-2 0  9997","RCS_SIZE":"LARGE","APOAPSIS":"547.739","REV_AT_EPOCH":"356","TLE_LINE2":"2 45383  53.0511 262.5883 0000716  74.7800 265.0050 15.06390501  3566","BSTAR":"0.00126160000000","OBJECT_ID":"2020-019Z","COUNTRY_CODE":"US","RA_OF_ASC_NODE":"262.5883"},{"SITE":"AFETR","MEAN_ELEMENT_THEORY":"SGP4","PERIOD":"95.592","ECCENTRICITY":"0.00006870","LAUNCH_DATE":"2020-03-18","CENTER_NAME":"EARTH","MEAN_MOTION":"15.06398391","GP_ID":"185187100","FILE":"3122258","ARG_OF_PERICENTER":"70.0084","REF_FRAME":"TEME","EPOCH":"2021-09-21T17:27:19.323072","MEAN_MOTION_DOT":"-0.00000704","MEAN_MOTION_DDOT":"0.0000000000000","OBJECT_NAME":"STARLINK-1267","ELEMENT_SET_NO":"999","INCLINATION":"53.0524","EPHEMERIS_TYPE":"0","OBJECT_TYPE":"PAYLOAD","DECAY_DATE":null,"TLE_LINE1":"1 45384U 20019AA  21264.72730698 -.00000704  00000-0 -28398-4 0  9990","CLASSIFICATION_TYPE":"U","NORAD_CAT_ID":"45384","MEAN_ANOMALY":"290.0979","PERIAPSIS":"546.743","TIME_SYSTEM":"UTC","SEMIMAJOR_AXIS":"6925.353","TLE_LINE2":"2 45384  53.0524 263.7965 0000687  70.0084 290.0979 15.06398391 84332","BSTAR":"-0.00002839800000","OBJECT_ID":"2020-019AA","RA_OF_ASC_NODE":"263.7965","COUNTRY_CODE":"US","RCS_SIZE":"LARGE","APOAPSIS":"547.694","REV_AT_EPOCH":"8433"},{"RA_OF_ASC_NODE":"263.7979","COUNTRY_CODE":"US","BSTAR":"0.00010076000000","TLE_LINE2":"2 45386  53.0537 263.7979 0001079  81.1120 278.9991 15.06410286 84330","OBJECT_ID":"2020-019AC","REV_AT_EPOCH":"8433","RCS_SIZE":"LARGE","APOAPSIS":"547.929","TLE_LINE1":"1 45386U 20019AC  21264.73098760  .00001220  00000-0  10076-3 0  9995","DECAY_DATE":null,"PERIAPSIS":"546.435","TIME_SYSTEM":"UTC","SEMIMAJOR_AXIS":"6925.317","CLASSIFICATION_TYPE":"U","NORAD_CAT_ID":"45386","MEAN_ANOMALY":"278.9991","ARG_OF_PERICENTER":"81.1120","EPOCH":"2021-09-21T17:32:37.328640","REF_FRAME":"TEME","MEAN_MOTION_DOT":"0.00001220","MEAN_MOTION_DDOT":"0.0000000000000","MEAN_MOTION":"15.06410286","GP_ID":"185187354","FILE":"3122258","EPHEMERIS_TYPE":"0","OBJECT_TYPE":"PAYLOAD","OBJECT_NAME":"STARLINK-1272","ELEMENT_SET_NO":"999","INCLINATION":"53.0537","PERIOD":"95.591","MEAN_ELEMENT_THEORY":"SGP4","SITE":"AFETR","CENTER_NAME":"EARTH","ECCENTRICITY":"0.00010790","LAUNCH_DATE":"2020-03-18"},{"OBJECT_NAME":"STARLINK-1274","INCLINATION":"53.0532","ELEMENT_SET_NO":"999","EPHEMERIS_TYPE":"0","OBJECT_TYPE":"PAYLOAD","GP_ID":"185156170","MEAN_MOTION":"15.06391148","FILE":"3121847","ARG_OF_PERICENTER":"65.8799","MEAN_MOTION_DOT":"-0.00001041","MEAN_MOTION_DDOT":"0.0000000000000","REF_FRAME":"TEME","EPOCH":"2021-09-21T10:06:46.882080","ECCENTRICITY":"0.00010740","LAUNCH_DATE":"2020-03-18","CENTER_NAME":"EARTH","SITE":"AFETR","MEAN_ELEMENT_THEORY":"SGP4","PERIOD":"95.593","RCS_SIZE":"LARGE","APOAPSIS":"547.984","REV_AT_EPOCH":"8428","TLE_LINE2":"2 45387  53.0532 265.1887 0001074  65.8799 294.2302 15.06391148 84282","BSTAR":"-0.00005104600000","OBJECT_ID":"2020-019AD","COUNTRY_CODE":"US","RA_OF_ASC_NODE":"265.1887","NORAD_CAT_ID":"45387","CLASSIFICATION_TYPE":"U","MEAN_ANOMALY":"294.2302","TIME_SYSTEM":"UTC","SEMIMAJOR_AXIS":"6925.376","PERIAPSIS":"546.497","DECAY_DATE":null,"TLE_LINE1":"1 45387U 20019AD  21264.42137595 -.00001041  00000-0 -51046-4 0  9998"},{"APOAPSIS":"547.825","RCS_SIZE":"LARGE","REV_AT_EPOCH":"8405","OBJECT_ID":"2020-019AE","BSTAR":"-0.00005290300000","TLE_LINE2":"2 45388  53.0544 283.5323 0000844  80.8625 279.2459 15.06391133 84059","RA_OF_ASC_NODE":"283.5323","COUNTRY_CODE":"US","MEAN_ANOMALY":"279.2459","CLASSIFICATION_TYPE":"U","NORAD_CAT_ID":"45388","PERIAPSIS":"546.656","SEMIMAJOR_AXIS":"6925.376","TIME_SYSTEM":"UTC","DECAY_DATE":null,"TLE_LINE1":"1 45388U 20019AE  21264.78813016 -.00001069  00000-0 -52903-4 0  9990","ELEMENT_SET_NO":"999","INCLINATION":"53.0544","OBJECT_NAME":"STARLINK-1280","OBJECT_TYPE":"PAYLOAD","EPHEMERIS_TYPE":"0","FILE":"3122258","MEAN_MOTION":"15.06391133","GP_ID":"185186850","EPOCH":"2021-09-21T18:54:54.445824","REF_FRAME":"TEME","MEAN_MOTION_DOT":"-0.00001069","MEAN_MOTION_DDOT":"0.0000000000000","ARG_OF_PERICENTER":"80.8625","LAUNCH_DATE":"2020-03-18","ECCENTRICITY":"0.00008440","CENTER_NAME":"EARTH","SITE":"AFETR","MEAN_ELEMENT_THEORY":"SGP4","PERIOD":"95.593"},{"OBJECT_TYPE":"PAYLOAD","EPHEMERIS_TYPE":"0","INCLINATION":"53.0530","ELEMENT_SET_NO":"999","OBJECT_NAME":"STARLINK-1283","MEAN_MOTION_DDOT":"0.0000000000000","MEAN_MOTION_DOT":"0.00000685","REF_FRAME":"TEME","EPOCH":"2021-09-21T16:50:10.267872","ARG_OF_PERICENTER":"73.4448","FILE":"3122258","GP_ID":"185186603","MEAN_MOTION":"15.06388698","CENTER_NAME":"EARTH","LAUNCH_DATE":"2020-03-18","ECCENTRICITY":"0.00009810","PERIOD":"95.593","MEAN_ELEMENT_THEORY":"SGP4","SITE":"AFETR","REV_AT_EPOCH":"8433","APOAPSIS":"547.928","RCS_SIZE":"LARGE","COUNTRY_CODE":"US","RA_OF_ASC_NODE":"263.9159","OBJECT_ID":"2020-019AF","BSTAR":"0.00006490800000","TLE_LINE2":"2 45389  53.0530 263.9159 0000981  73.4448 286.6649 15.06388698 84333","SEMIMAJOR_AXIS":"6925.383","TIME_SYSTEM":"UTC","PERIAPSIS":"546.569","MEAN_ANOMALY":"286.6649","NORAD_CAT_ID":"45389","CLASSIFICATION_TYPE":"U","TLE_LINE1":"1 45389U 20019AF  21264.70150773  .00000685  00000-0  64908-4 0  9996","DECAY_DATE":null},{"ARG_OF_PERICENTER":"65.3183","MEAN_MOTION_DOT":"-0.00001552","MEAN_MOTION_DDOT":"0.0000000000000","REF_FRAME":"TEME","EPOCH":"2021-09-21T06:39:46.903680","GP_ID":"185156419","MEAN_MOTION":"15.06388906","FILE":"3121847","EPHEMERIS_TYPE":"0","OBJECT_TYPE":"PAYLOAD","OBJECT_NAME":"STARLINK-1284","INCLINATION":"53.0539","ELEMENT_SET_NO":"999","PERIOD":"95.593","SITE":"AFETR","MEAN_ELEMENT_THEORY":"SGP4","CENTER_NAME":"EARTH","ECCENTRICITY":"0.00007020","LAUNCH_DATE":"2020-03-18","COUNTRY_CODE":"US","RA_OF_ASC_NODE":"265.8313","TLE_LINE2":"2 45390  53.0539 265.8313 0000702  65.3183 294.7879 15.06388906 84263","BSTAR":"-0.00008539200000","OBJECT_ID":"2020-019AG","REV_AT_EPOCH":"8426","RCS_SIZE":"LARGE","APOAPSIS":"547.734","TLE_LINE1":"1 45390U 20019AG  21264.27762620 -.00001552  00000-0 -85392-4 0  9996","DECAY_DATE":null,"TIME_SYSTEM":"UTC","SEMIMAJOR_AXIS":"6925.383","PERIAPSIS":"546.761","NORAD_CAT_ID":"45390","CLASSIFICATION_TYPE":"U","MEAN_ANOMALY":"294.7879"},{"REV_AT_EPOCH":"8401","RCS_SIZE":"LARGE","APOAPSIS":"547.831","COUNTRY_CODE":"US","RA_OF_ASC_NODE":"265.1651","TLE_LINE2":"2 45391  53.0541 265.1651 0000869  70.2329 289.8753 15.06395056 84019","BSTAR":"0.00005425300000","OBJECT_ID":"2020-019AH","TIME_SYSTEM":"UTC","SEMIMAJOR_AXIS":"6925.364","PERIAPSIS":"546.627","NORAD_CAT_ID":"45391","CLASSIFICATION_TYPE":"U","MEAN_ANOMALY":"289.8753","TLE_LINE1":"1 45391U 20019AH  21264.42507999  .00000527  00000-0  54253-4 0  9991","DECAY_DATE":null,"EPHEMERIS_TYPE":"0","OBJECT_TYPE":"PAYLOAD","OBJECT_NAME":"STARLINK-1289","INCLINATION":"53.0541","ELEMENT_SET_NO":"999","ARG_OF_PERICENTER":"70.2329","MEAN_MOTION_DOT":"0.00000527","MEAN_MOTION_DDOT":"0.0000000000000","EPOCH":"2021-09-21T10:12:06.911136","REF_FRAME":"TEME","GP_ID":"185156670","MEAN_MOTION":"15.06395056","FILE":"3121847","CENTER_NAME":"EARTH","ECCENTRICITY":"0.00008690","LAUNCH_DATE":"2020-03-18","PERIOD":"95.592","SITE":"AFETR","MEAN_ELEMENT_THEORY":"SGP4"}];
